ORBCOMM FM103           
1 40091U 14040F   24146.99883657  .00001387  00000+0  34515-3 0  9994
2 40091  47.0068  44.2433 0002351 297.1897  62.8748 14.56637323507620
ORBCOMM FM114           
1 41179U 15081A   24147.85497471  .00001461  00000+0  36120-3 0  9996
2 41179  47.0025 309.4827 0001237 339.0363  21.0471 14.56694441448167
ORBCOMM FM119           
1 41180U 15081B   24147.34562051  .00001076  00000+0  27622-3 0  9998
2 41180  46.9990 221.0766 0000382  34.5553 325.5356 14.56625949449293
ORBCOMM FM105           
1 41181U 15081C   24147.80078922  .00000404  00000+0  16145-3 0  9991
2 41181  47.0001 187.3394 0001581 357.6805   2.4067 14.44410261444988
ORBCOMM FM110           
1 41182U 15081D   24147.14641967  .00001638  00000+0  40043-3 0  9998
2 41182  47.0018 312.2294 0002339 206.6867 153.3898 14.56685991447885
ORBCOMM FM118           
1 41183U 15081E   24147.53545842  .00001501  00000+0  37020-3 0  9997
2 41183  47.0040 310.7074 0002436 204.7972 155.2796 14.56676096448047
ORBCOMM FM112           
1 41184U 15081F   24147.32225164  .00001476  00000+0  36456-3 0  9990
2 41184  46.9972 220.3940 0000637 333.9328  26.1525 14.56696698449237
ORBCOMM FM113           
1 41185U 15081G   24146.33926696  .00001628  00000+0  39828-3 0  9994
2 41185  46.9994 225.2954 0000331 293.9836  66.1014 14.56684221449079
