<?xml version="1.0" encoding="UTF-8"?>
<ndm xmlns:xsi="http://www.w3.org/2001/XMLSchema-instance" xsi:noNamespaceSchemaLocation="https://sanaregistry.org/r/ndmxml_unqualified/ndmxml-2.0.0-master-2.0.xsd">
<omm id="CCSDS_OMM_VERS" version="2.0">
<header><CREATION_DATE/><ORIGINATOR/></header><body><segment><metadata><OBJECT_NAME>ORBCOMM FM103</OBJECT_NAME><OBJECT_ID>2014-040F</OBJECT_ID><CENTER_NAME>EARTH</CENTER_NAME><REF_FRAME>TEME</REF_FRAME><TIME_SYSTEM>UTC</TIME_SYSTEM><MEAN_ELEMENT_THEORY>SGP4</MEAN_ELEMENT_THEORY></metadata><data><meanElements><EPOCH>2024-05-25T23:58:19.479648</EPOCH><MEAN_MOTION>14.56637323</MEAN_MOTION><ECCENTRICITY>.0002351</ECCENTRICITY><INCLINATION>47.0068</INCLINATION><RA_OF_ASC_NODE>44.2433</RA_OF_ASC_NODE><ARG_OF_PERICENTER>297.1897</ARG_OF_PERICENTER><MEAN_ANOMALY>62.8748</MEAN_ANOMALY></meanElements><tleParameters><EPHEMERIS_TYPE>0</EPHEMERIS_TYPE><CLASSIFICATION_TYPE>U</CLASSIFICATION_TYPE><NORAD_CAT_ID>40091</NORAD_CAT_ID><ELEMENT_SET_NO>999</ELEMENT_SET_NO><REV_AT_EPOCH>50762</REV_AT_EPOCH><BSTAR>.34515E-3</BSTAR><MEAN_MOTION_DOT>.1387E-4</MEAN_MOTION_DOT><MEAN_MOTION_DDOT>0</MEAN_MOTION_DDOT></tleParameters></data></segment></body></omm>
<omm id="CCSDS_OMM_VERS" version="2.0">
<header><CREATION_DATE/><ORIGINATOR/></header><body><segment><metadata><OBJECT_NAME>ORBCOMM FM114</OBJECT_NAME><OBJECT_ID>2015-081A</OBJECT_ID><CENTER_NAME>EARTH</CENTER_NAME><REF_FRAME>TEME</REF_FRAME><TIME_SYSTEM>UTC</TIME_SYSTEM><MEAN_ELEMENT_THEORY>SGP4</MEAN_ELEMENT_THEORY></metadata><data><meanElements><EPOCH>2024-05-26T20:31:09.814944</EPOCH><MEAN_MOTION>14.56694441</MEAN_MOTION><ECCENTRICITY>.0001237</ECCENTRICITY><INCLINATION>47.0025</INCLINATION><RA_OF_ASC_NODE>309.4827</RA_OF_ASC_NODE><ARG_OF_PERICENTER>339.0363</ARG_OF_PERICENTER><MEAN_ANOMALY>21.0471</MEAN_ANOMALY></meanElements><tleParameters><EPHEMERIS_TYPE>0</EPHEMERIS_TYPE><CLASSIFICATION_TYPE>U</CLASSIFICATION_TYPE><NORAD_CAT_ID>41179</NORAD_CAT_ID><ELEMENT_SET_NO>999</ELEMENT_SET_NO><REV_AT_EPOCH>44816</REV_AT_EPOCH><BSTAR>.3612E-3</BSTAR><MEAN_MOTION_DOT>.1461E-4</MEAN_MOTION_DOT><MEAN_MOTION_DDOT>0</MEAN_MOTION_DDOT></tleParameters></data></segment></body></omm>
<omm id="CCSDS_OMM_VERS" version="2.0">
<header><CREATION_DATE/><ORIGINATOR/></header><body><segment><metadata><OBJECT_NAME>ORBCOMM FM119</OBJECT_NAME><OBJECT_ID>2015-081B</OBJECT_ID><CENTER_NAME>EARTH</CENTER_NAME><REF_FRAME>TEME</REF_FRAME><TIME_SYSTEM>UTC</TIME_SYSTEM><MEAN_ELEMENT_THEORY>SGP4</MEAN_ELEMENT_THEORY></metadata><data><meanElements><EPOCH>2024-05-26T08:17:41.612064</EPOCH><MEAN_MOTION>14.56625949</MEAN_MOTION><ECCENTRICITY>.0000382</ECCENTRICITY><INCLINATION>46.9990</INCLINATION><RA_OF_ASC_NODE>221.0766</RA_OF_ASC_NODE><ARG_OF_PERICENTER>34.5553</ARG_OF_PERICENTER><MEAN_ANOMALY>325.5356</MEAN_ANOMALY></meanElements><tleParameters><EPHEMERIS_TYPE>0</EPHEMERIS_TYPE><CLASSIFICATION_TYPE>U</CLASSIFICATION_TYPE><NORAD_CAT_ID>41180</NORAD_CAT_ID><ELEMENT_SET_NO>999</ELEMENT_SET_NO><REV_AT_EPOCH>44929</REV_AT_EPOCH><BSTAR>.27622E-3</BSTAR><MEAN_MOTION_DOT>.1076E-4</MEAN_MOTION_DOT><MEAN_MOTION_DDOT>0</MEAN_MOTION_DDOT></tleParameters></data></segment></body></omm>
<omm id="CCSDS_OMM_VERS" version="2.0">
<header><CREATION_DATE/><ORIGINATOR/></header><body><segment><metadata><OBJECT_NAME>ORBCOMM FM105</OBJECT_NAME><OBJECT_ID>2015-081C</OBJECT_ID><CENTER_NAME>EARTH</CENTER_NAME><REF_FRAME>TEME</REF_FRAME><TIME_SYSTEM>UTC</TIME_SYSTEM><MEAN_ELEMENT_THEORY>SGP4</MEAN_ELEMENT_THEORY></metadata><data><meanElements><EPOCH>2024-05-26T19:13:08.188608</EPOCH><MEAN_MOTION>14.44410261</MEAN_MOTION><ECCENTRICITY>.0001581</ECCENTRICITY><INCLINATION>47.0001</INCLINATION><RA_OF_ASC_NODE>187.3394</RA_OF_ASC_NODE><ARG_OF_PERICENTER>357.6805</ARG_OF_PERICENTER><MEAN_ANOMALY>2.4067</MEAN_ANOMALY></meanElements><tleParameters><EPHEMERIS_TYPE>0</EPHEMERIS_TYPE><CLASSIFICATION_TYPE>U</CLASSIFICATION_TYPE><NORAD_CAT_ID>41181</NORAD_CAT_ID><ELEMENT_SET_NO>999</ELEMENT_SET_NO><REV_AT_EPOCH>44498</REV_AT_EPOCH><BSTAR>.16145E-3</BSTAR><MEAN_MOTION_DOT>.404E-5</MEAN_MOTION_DOT><MEAN_MOTION_DDOT>0</MEAN_MOTION_DDOT></tleParameters></data></segment></body></omm>
<omm id="CCSDS_OMM_VERS" version="2.0">
<header><CREATION_DATE/><ORIGINATOR/></header><body><segment><metadata><OBJECT_NAME>ORBCOMM FM110</OBJECT_NAME><OBJECT_ID>2015-081D</OBJECT_ID><CENTER_NAME>EARTH</CENTER_NAME><REF_FRAME>TEME</REF_FRAME><TIME_SYSTEM>UTC</TIME_SYSTEM><MEAN_ELEMENT_THEORY>SGP4</MEAN_ELEMENT_THEORY></metadata><data><meanElements><EPOCH>2024-05-26T03:30:50.659488</EPOCH><MEAN_MOTION>14.56685991</MEAN_MOTION><ECCENTRICITY>.0002339</ECCENTRICITY><INCLINATION>47.0018</INCLINATION><RA_OF_ASC_NODE>312.2294</RA_OF_ASC_NODE><ARG_OF_PERICENTER>206.6867</ARG_OF_PERICENTER><MEAN_ANOMALY>153.3898</MEAN_ANOMALY></meanElements><tleParameters><EPHEMERIS_TYPE>0</EPHEMERIS_TYPE><CLASSIFICATION_TYPE>U</CLASSIFICATION_TYPE><NORAD_CAT_ID>41182</NORAD_CAT_ID><ELEMENT_SET_NO>999</ELEMENT_SET_NO><REV_AT_EPOCH>44788</REV_AT_EPOCH><BSTAR>.40043E-3</BSTAR><MEAN_MOTION_DOT>.1638E-4</MEAN_MOTION_DOT><MEAN_MOTION_DDOT>0</MEAN_MOTION_DDOT></tleParameters></data></segment></body></omm>
<omm id="CCSDS_OMM_VERS" version="2.0">
<header><CREATION_DATE/><ORIGINATOR/></header><body><segment><metadata><OBJECT_NAME>ORBCOMM FM118</OBJECT_NAME><OBJECT_ID>2015-081E</OBJECT_ID><CENTER_NAME>EARTH</CENTER_NAME><REF_FRAME>TEME</REF_FRAME><TIME_SYSTEM>UTC</TIME_SYSTEM><MEAN_ELEMENT_THEORY>SGP4</MEAN_ELEMENT_THEORY></metadata><data><meanElements><EPOCH>2024-05-26T12:51:03.607488</EPOCH><MEAN_MOTION>14.56676096</MEAN_MOTION><ECCENTRICITY>.0002436</ECCENTRICITY><INCLINATION>47.0040</INCLINATION><RA_OF_ASC_NODE>310.7074</RA_OF_ASC_NODE><ARG_OF_PERICENTER>204.7972</ARG_OF_PERICENTER><MEAN_ANOMALY>155.2796</MEAN_ANOMALY></meanElements><tleParameters><EPHEMERIS_TYPE>0</EPHEMERIS_TYPE><CLASSIFICATION_TYPE>U</CLASSIFICATION_TYPE><NORAD_CAT_ID>41183</NORAD_CAT_ID><ELEMENT_SET_NO>999</ELEMENT_SET_NO><REV_AT_EPOCH>44804</REV_AT_EPOCH><BSTAR>.3702E-3</BSTAR><MEAN_MOTION_DOT>.1501E-4</MEAN_MOTION_DOT><MEAN_MOTION_DDOT>0</MEAN_MOTION_DDOT></tleParameters></data></segment></body></omm>
<omm id="CCSDS_OMM_VERS" version="2.0">
<header><CREATION_DATE/><ORIGINATOR/></header><body><segment><metadata><OBJECT_NAME>ORBCOMM FM112</OBJECT_NAME><OBJECT_ID>2015-081F</OBJECT_ID><CENTER_NAME>EARTH</CENTER_NAME><REF_FRAME>TEME</REF_FRAME><TIME_SYSTEM>UTC</TIME_SYSTEM><MEAN_ELEMENT_THEORY>SGP4</MEAN_ELEMENT_THEORY></metadata><data><meanElements><EPOCH>2024-05-26T07:44:02.541696</EPOCH><MEAN_MOTION>14.56696698</MEAN_MOTION><ECCENTRICITY>.0000637</ECCENTRICITY><INCLINATION>46.9972</INCLINATION><RA_OF_ASC_NODE>220.3940</RA_OF_ASC_NODE><ARG_OF_PERICENTER>333.9328</ARG_OF_PERICENTER><MEAN_ANOMALY>26.1525</MEAN_ANOMALY></meanElements><tleParameters><EPHEMERIS_TYPE>0</EPHEMERIS_TYPE><CLASSIFICATION_TYPE>U</CLASSIFICATION_TYPE><NORAD_CAT_ID>41184</NORAD_CAT_ID><ELEMENT_SET_NO>999</ELEMENT_SET_NO><REV_AT_EPOCH>44923</REV_AT_EPOCH><BSTAR>.36456E-3</BSTAR><MEAN_MOTION_DOT>.1476E-4</MEAN_MOTION_DOT><MEAN_MOTION_DDOT>0</MEAN_MOTION_DDOT></tleParameters></data></segment></body></omm>
<omm id="CCSDS_OMM_VERS" version="2.0">
<header><CREATION_DATE/><ORIGINATOR/></header><body><segment><metadata><OBJECT_NAME>ORBCOMM FM113</OBJECT_NAME><OBJECT_ID>2015-081G</OBJECT_ID><CENTER_NAME>EARTH</CENTER_NAME><REF_FRAME>TEME</REF_FRAME><TIME_SYSTEM>UTC</TIME_SYSTEM><MEAN_ELEMENT_THEORY>SGP4</MEAN_ELEMENT_THEORY></metadata><data><meanElements><EPOCH>2024-05-25T08:08:32.665344</EPOCH><MEAN_MOTION>14.56684221</MEAN_MOTION><ECCENTRICITY>.0000331</ECCENTRICITY><INCLINATION>46.9994</INCLINATION><RA_OF_ASC_NODE>225.2954</RA_OF_ASC_NODE><ARG_OF_PERICENTER>293.9836</ARG_OF_PERICENTER><MEAN_ANOMALY>66.1014</MEAN_ANOMALY></meanElements><tleParameters><EPHEMERIS_TYPE>0</EPHEMERIS_TYPE><CLASSIFICATION_TYPE>U</CLASSIFICATION_TYPE><NORAD_CAT_ID>41185</NORAD_CAT_ID><ELEMENT_SET_NO>999</ELEMENT_SET_NO><REV_AT_EPOCH>44907</REV_AT_EPOCH><BSTAR>.39828E-3</BSTAR><MEAN_MOTION_DOT>.1628E-4</MEAN_MOTION_DOT><MEAN_MOTION_DDOT>0</MEAN_MOTION_DDOT></tleParameters></data></segment></body></omm>

</ndm>
